start=new Date('2023-03-10T00:00:00.000Z').valueOf();
sats=[{"MEAN_MOTION_DOT":"-0.00490340","RA_OF_ASC_NODE":"202.4124","RCS_SIZE":"LARGE","PERIOD":"92.958","MEAN_ELEMENT_THEORY":"SGP4","COUNTRY_CODE":"US","LAUNCH_DATE":"2023-02-12","REV_AT_EPOCH":"130","CENTER_NAME":"EARTH","ARG_OF_PERICENTER":"282.3458","MEAN_ANOMALY":"86.7495","OBJECT_ID":"2023-020AA","ELEMENT_SET_NO":"999","NORAD_CAT_ID":"55593","MEAN_MOTION_DDOT":"0.0000000000000","DECAY_DATE":null,"GP_ID":"227771590","TLE_LINE2":"2 55593  42.9988 202.4124 0001371 282.3458  86.7495 15.49085375  1308","REF_FRAME":"TEME","OBJECT_TYPE":"PAYLOAD","SEMIMAJOR_AXIS":"6797.537","TLE_LINE1":"1 55593U 23020AA  23068.91667824 -.00490340  00000-0 -93727-2 0  9998","ECCENTRICITY":"0.00013710","SITE":"AFETR","BSTAR":"-0.00937270000000","PERIAPSIS":"418.470","EPOCH":"2023-03-09T22:00:00.999936","TIME_SYSTEM":"UTC","CLASSIFICATION_TYPE":"U","INCLINATION":"42.9988","APOAPSIS":"420.334","OBJECT_NAME":"STARLINK-5703","EPHEMERIS_TYPE":"0","MEAN_MOTION":"15.49085375","FILE":"3855951"},{"REF_FRAME":"TEME","GP_ID":"227771836","TLE_LINE2":"2 55594  42.9994 202.4013 0001625 279.0067  95.2357 15.48926631  1304","OBJECT_TYPE":"PAYLOAD","ECCENTRICITY":"0.00016250","SITE":"AFETR","TLE_LINE1":"1 55594U 23020AB  23068.91667824 -.00039893  00000-0 -71858-3 0  9993","SEMIMAJOR_AXIS":"6798.002","PERIAPSIS":"418.762","EPOCH":"2023-03-09T22:00:00.999936","BSTAR":"-0.00071858000000","INCLINATION":"42.9994","TIME_SYSTEM":"UTC","CLASSIFICATION_TYPE":"U","OBJECT_NAME":"STARLINK-5750","APOAPSIS":"420.972","EPHEMERIS_TYPE":"0","MEAN_MOTION":"15.48926631","FILE":"3855951","RCS_SIZE":"LARGE","MEAN_MOTION_DOT":"-0.00039893","RA_OF_ASC_NODE":"202.4013","PERIOD":"92.968","MEAN_ELEMENT_THEORY":"SGP4","LAUNCH_DATE":"2023-02-12","REV_AT_EPOCH":"130","COUNTRY_CODE":"US","MEAN_ANOMALY":"95.2357","ARG_OF_PERICENTER":"279.0067","CENTER_NAME":"EARTH","OBJECT_ID":"2023-020AB","DECAY_DATE":null,"ELEMENT_SET_NO":"999","MEAN_MOTION_DDOT":"0.0000000000000","NORAD_CAT_ID":"55594"},{"OBJECT_TYPE":"PAYLOAD","TLE_LINE2":"2 55595  42.9989 202.4063 0001410 277.1430  94.5377 15.48909011  1306","GP_ID":"227772091","REF_FRAME":"TEME","SEMIMAJOR_AXIS":"6798.053","TLE_LINE1":"1 55595U 23020AC  23068.91667824  .00020140  00000-0  36931-3 0  9990","ECCENTRICITY":"0.00014100","SITE":"AFETR","TIME_SYSTEM":"UTC","CLASSIFICATION_TYPE":"U","INCLINATION":"42.9989","BSTAR":"0.00036931000000","EPOCH":"2023-03-09T22:00:00.999936","PERIAPSIS":"418.960","MEAN_MOTION":"15.48909011","FILE":"3855951","EPHEMERIS_TYPE":"0","APOAPSIS":"420.877","OBJECT_NAME":"STARLINK-5740","MEAN_MOTION_DOT":"0.00020140","RA_OF_ASC_NODE":"202.4063","RCS_SIZE":"LARGE","COUNTRY_CODE":"US","LAUNCH_DATE":"2023-02-12","REV_AT_EPOCH":"130","MEAN_ELEMENT_THEORY":"SGP4","PERIOD":"92.969","OBJECT_ID":"2023-020AC","ARG_OF_PERICENTER":"277.1430","CENTER_NAME":"EARTH","MEAN_ANOMALY":"94.5377","NORAD_CAT_ID":"55595","MEAN_MOTION_DDOT":"0.0000000000000","ELEMENT_SET_NO":"999","DECAY_DATE":null},{"MEAN_ELEMENT_THEORY":"SGP4","PERIOD":"92.969","LAUNCH_DATE":"2023-02-12","REV_AT_EPOCH":"130","COUNTRY_CODE":"US","RCS_SIZE":"LARGE","RA_OF_ASC_NODE":"202.3983","MEAN_MOTION_DOT":"0.00020211","DECAY_DATE":null,"MEAN_MOTION_DDOT":"0.0000000000000","NORAD_CAT_ID":"55596","ELEMENT_SET_NO":"999","MEAN_ANOMALY":"93.1464","ARG_OF_PERICENTER":"282.3668","CENTER_NAME":"EARTH","OBJECT_ID":"2023-020AD","SITE":"AFETR","ECCENTRICITY":"0.00015440","TLE_LINE1":"1 55596U 23020AD  23068.91667824  .00020211  00000-0  37061-3 0  9995","SEMIMAJOR_AXIS":"6798.059","REF_FRAME":"TEME","TLE_LINE2":"2 55596  42.9994 202.3983 0001544 282.3668  93.1464 15.48907116  1308","GP_ID":"227770340","OBJECT_TYPE":"PAYLOAD","OBJECT_NAME":"STARLINK-5729","APOAPSIS":"420.974","MEAN_MOTION":"15.48907116","FILE":"3855951","EPHEMERIS_TYPE":"0","PERIAPSIS":"418.874","EPOCH":"2023-03-09T22:00:00.999936","BSTAR":"0.00037061000000","INCLINATION":"42.9994","CLASSIFICATION_TYPE":"U","TIME_SYSTEM":"UTC"},{"OBJECT_NAME":"STARLINK-5743","APOAPSIS":"356.759","FILE":"3855951","MEAN_MOTION":"15.71378163","EPHEMERIS_TYPE":"0","PERIAPSIS":"353.160","EPOCH":"2023-03-09T16:41:25.018944","BSTAR":"-0.00002799700000","INCLINATION":"43.0016","CLASSIFICATION_TYPE":"U","TIME_SYSTEM":"UTC","ECCENTRICITY":"0.00026730","SITE":"AFETR","TLE_LINE1":"1 55597U 23020AE  23068.69542846 -.00004127  00000-0 -27997-4 0  9995","SEMIMAJOR_AXIS":"6733.094","REF_FRAME":"TEME","GP_ID":"227771090","TLE_LINE2":"2 55597  43.0016 202.4628 0002673 236.4289 123.6324 15.71378163  4022","OBJECT_TYPE":"PAYLOAD","DECAY_DATE":null,"NORAD_CAT_ID":"55597","MEAN_MOTION_DDOT":"0.0000000000000","ELEMENT_SET_NO":"999","MEAN_ANOMALY":"123.6324","ARG_OF_PERICENTER":"236.4289","CENTER_NAME":"EARTH","OBJECT_ID":"2023-020AE","MEAN_ELEMENT_THEORY":"SGP4","PERIOD":"91.639","REV_AT_EPOCH":"402","LAUNCH_DATE":"2023-02-12","COUNTRY_CODE":"US","RCS_SIZE":"LARGE","MEAN_MOTION_DOT":"-0.00004127","RA_OF_ASC_NODE":"202.4628"},{"ELEMENT_SET_NO":"999","MEAN_MOTION_DDOT":"0.0000000000000","NORAD_CAT_ID":"55598","DECAY_DATE":null,"ARG_OF_PERICENTER":"244.6945","CENTER_NAME":"EARTH","MEAN_ANOMALY":"115.3799","OBJECT_ID":"2023-020AF","PERIOD":"91.646","MEAN_ELEMENT_THEORY":"SGP4","COUNTRY_CODE":"US","REV_AT_EPOCH":"402","LAUNCH_DATE":"2023-02-12","RA_OF_ASC_NODE":"202.2617","MEAN_MOTION_DOT":"-0.00034794","RCS_SIZE":"LARGE","APOAPSIS":"356.099","OBJECT_NAME":"STARLINK-5756","EPHEMERIS_TYPE":"0","FILE":"3855951","MEAN_MOTION":"15.71260952","BSTAR":"-0.00026406000000","PERIAPSIS":"354.489","EPOCH":"2023-03-09T16:06:36.832896","CLASSIFICATION_TYPE":"U","TIME_SYSTEM":"UTC","INCLINATION":"43.0008","SEMIMAJOR_AXIS":"6733.429","TLE_LINE1":"1 55598U 23020AF  23068.67125964 -.00034794  00000-0 -26406-3 0  9998","SITE":"AFETR","ECCENTRICITY":"0.00011960","GP_ID":"227771336","TLE_LINE2":"2 55598  43.0008 202.2617 0001196 244.6945 115.3799 15.71260952  4029","REF_FRAME":"TEME","OBJECT_TYPE":"PAYLOAD"},{"OBJECT_ID":"2023-020AG","MEAN_ANOMALY":"89.3372","ARG_OF_PERICENTER":"270.7254","CENTER_NAME":"EARTH","DECAY_DATE":null,"ELEMENT_SET_NO":"999","NORAD_CAT_ID":"55599","MEAN_MOTION_DDOT":"0.0000000000000","RCS_SIZE":"LARGE","MEAN_MOTION_DOT":"0.00132768","RA_OF_ASC_NODE":"201.8458","LAUNCH_DATE":"2023-02-12","REV_AT_EPOCH":"403","COUNTRY_CODE":"US","PERIOD":"91.631","MEAN_ELEMENT_THEORY":"SGP4","INCLINATION":"43.0028","TIME_SYSTEM":"UTC","CLASSIFICATION_TYPE":"U","EPOCH":"2023-03-09T17:32:16.981440","PERIAPSIS":"353.124","BSTAR":"0.00099285000000","EPHEMERIS_TYPE":"0","MEAN_MOTION":"15.71521246","FILE":"3855951","OBJECT_NAME":"STARLINK-5761","APOAPSIS":"355.977","OBJECT_TYPE":"PAYLOAD","REF_FRAME":"TEME","TLE_LINE2":"2 55599  43.0028 201.8458 0002119 270.7254  89.3372 15.71521246  4033","GP_ID":"227772166","SITE":"AFETR","ECCENTRICITY":"0.00021190","SEMIMAJOR_AXIS":"6732.686","TLE_LINE1":"1 55599U 23020AG  23068.73075210  .00132768  00000-0  99285-3 0  9997"},{"PERIOD":"91.639","MEAN_ELEMENT_THEORY":"SGP4","LAUNCH_DATE":"2023-02-12","REV_AT_EPOCH":"398","COUNTRY_CODE":"US","RCS_SIZE":"LARGE","RA_OF_ASC_NODE":"204.0540","MEAN_MOTION_DOT":"0.00017787","DECAY_DATE":null,"ELEMENT_SET_NO":"999","MEAN_MOTION_DDOT":"0.0000000000000","NORAD_CAT_ID":"55600","MEAN_ANOMALY":"80.3914","ARG_OF_PERICENTER":"279.6681","CENTER_NAME":"EARTH","OBJECT_ID":"2023-020AH","ECCENTRICITY":"0.00024080","SITE":"AFETR","SEMIMAJOR_AXIS":"6733.092","TLE_LINE1":"1 55600U 23020AH  23068.44924480  .00017787  00000-0  13865-3 0  9993","REF_FRAME":"TEME","TLE_LINE2":"2 55600  43.0000 204.0540 0002408 279.6681  80.3914 15.71379129  3983","GP_ID":"227770841","OBJECT_TYPE":"PAYLOAD","OBJECT_NAME":"STARLINK-5755","APOAPSIS":"356.578","EPHEMERIS_TYPE":"0","MEAN_MOTION":"15.71379129","FILE":"3855951","EPOCH":"2023-03-09T10:46:54.750720","PERIAPSIS":"353.335","BSTAR":"0.00013865000000","INCLINATION":"43.0000","TIME_SYSTEM":"UTC","CLASSIFICATION_TYPE":"U"},{"PERIOD":"92.968","MEAN_ELEMENT_THEORY":"SGP4","LAUNCH_DATE":"2023-02-12","REV_AT_EPOCH":"130","COUNTRY_CODE":"US","RCS_SIZE":"LARGE","MEAN_MOTION_DOT":"-0.00013830","RA_OF_ASC_NODE":"202.3943","DECAY_DATE":null,"ELEMENT_SET_NO":"999","NORAD_CAT_ID":"55601","MEAN_MOTION_DDOT":"0.0000000000000","MEAN_ANOMALY":"94.0569","CENTER_NAME":"EARTH","ARG_OF_PERICENTER":"282.7435","OBJECT_ID":"2023-020AJ","SITE":"AFETR","ECCENTRICITY":"0.00016970","SEMIMAJOR_AXIS":"6798.036","TLE_LINE1":"1 55601U 23020AJ  23068.91667824 -.00013830  00000-0 -24442-3 0  9992","REF_FRAME":"TEME","TLE_LINE2":"2 55601  42.9993 202.3943 0001697 282.7435  94.0569 15.48915090  1301","GP_ID":"227771591","OBJECT_TYPE":"PAYLOAD","OBJECT_NAME":"STARLINK-5744","APOAPSIS":"421.054","EPHEMERIS_TYPE":"0","MEAN_MOTION":"15.48915090","FILE":"3855951","PERIAPSIS":"418.747","EPOCH":"2023-03-09T22:00:00.999936","BSTAR":"-0.00024442000000","INCLINATION":"42.9993","TIME_SYSTEM":"UTC","CLASSIFICATION_TYPE":"U"},{"MEAN_MOTION":"15.71366580","FILE":"3855951","EPHEMERIS_TYPE":"0","APOAPSIS":"356.481","OBJECT_NAME":"STARLINK-5764","CLASSIFICATION_TYPE":"U","TIME_SYSTEM":"UTC","INCLINATION":"43.0019","BSTAR":"0.00003828000000","EPOCH":"2023-03-09T17:27:29.927808","PERIAPSIS":"353.504","TLE_LINE1":"1 55602U 23020AK  23068.72742972  .00004572  00000-0  38280-4 0  9997","SEMIMAJOR_AXIS":"6733.127","ECCENTRICITY":"0.00022110","SITE":"AFETR","OBJECT_TYPE":"PAYLOAD","GP_ID":"227771837","TLE_LINE2":"2 55602  43.0019 201.8179 0002211 286.8502  73.2124 15.71366580  4030","REF_FRAME":"TEME","MEAN_MOTION_DDOT":"0.0000000000000","NORAD_CAT_ID":"55602","ELEMENT_SET_NO":"999","DECAY_DATE":null,"OBJECT_ID":"2023-020AK","CENTER_NAME":"EARTH","ARG_OF_PERICENTER":"286.8502","MEAN_ANOMALY":"73.2124","COUNTRY_CODE":"US","REV_AT_EPOCH":"403","LAUNCH_DATE":"2023-02-12","MEAN_ELEMENT_THEORY":"SGP4","PERIOD":"91.640","RA_OF_ASC_NODE":"201.8179","MEAN_MOTION_DOT":"0.00004572","RCS_SIZE":"LARGE"}];
